[{"OBJECT_NAME":"OBJECT D","OBJECT_ID":"2024-085D","EPOCH":"2026-03-09T22:53:13.410816","MEAN_MOTION":15.33413141,"ECCENTRICITY":0.00152451,"INCLINATION":97.3312,"RA_OF_ASC_NODE":145.3953,"ARG_OF_PERICENTER":54.9672,"MEAN_ANOMALY":305.2998,"EPHEMERIS_TYPE":0,"CLASSIFICATION_TYPE":"U","NORAD_CAT_ID":59680,"ELEMENT_SET_NO":999,"REV_AT_EPOCH":10244,"BSTAR":0.00049264705,"MEAN_MOTION_DOT":0.00015903,"MEAN_MOTION_DDOT":0},{"OBJECT_NAME":"STARLINK-34054","OBJECT_ID":"2025-111U","EPOCH":"2026-03-09T10:10:50.104128","MEAN_MOTION":15.27592397,"ECCENTRICITY":0.00014423,"INCLINATION":43.0041,"RA_OF_ASC_NODE":79.2911,"ARG_OF_PERICENTER":268.6319,"MEAN_ANOMALY":91.4367,"EPHEMERIS_TYPE":0,"CLASSIFICATION_TYPE":"U","NORAD_CAT_ID":64141,"ELEMENT_SET_NO":999,"REV_AT_EPOCH":4542,"BSTAR":0.00073504981,"MEAN_MOTION_DOT":0.00020027,"MEAN_MOTION_DDOT":0}]
